[{"OBJECT_NAME":"STARLINK-35323","OBJECT_ID":"2025-235P","EPOCH":"2026-03-09T19:25:15.541824","MEAN_MOTION":15.30182085,"ECCENTRICITY":0.00011974,"INCLINATION":53.1599,"RA_OF_ASC_NODE":244.4353,"ARG_OF_PERICENTER":81.9408,"MEAN_ANOMALY":278.1728,"EPHEMERIS_TYPE":0,"CLASSIFICATION_TYPE":"U","NORAD_CAT_ID":66071,"ELEMENT_SET_NO":999,"REV_AT_EPOCH":2294,"BSTAR":0.0013711625,"MEAN_MOTION_DOT":0.00040449,"MEAN_MOTION_DDOT":0},{"OBJECT_NAME":"COSMOS 1782","OBJECT_ID":"1986-074A","EPOCH":"2026-03-09T22:40:22.374624","MEAN_MOTION":15.33314157,"ECCENTRICITY":0.00054418,"INCLINATION":82.5242,"RA_OF_ASC_NODE":238.1482,"ARG_OF_PERICENTER":197.7479,"MEAN_ANOMALY":162.3574,"EPHEMERIS_TYPE":0,"CLASSIFICATION_TYPE":"U","NORAD_CAT_ID":16986,"ELEMENT_SET_NO":999,"REV_AT_EPOCH":13134,"BSTAR":0.00042191031,"MEAN_MOTION_DOT":0.00013623,"MEAN_MOTION_DDOT":0}]
